QIANFAN GROUP 7 OBJECT J
1 68644U 26075J   26106.65673186 -.00665190  00000+0 -31162+0 0  9995
2 68644  88.9910 327.6632 0014006 189.2081 170.8857 14.23240498  1299
