{
  "norad_id": 68644,
  "name": "QIANFAN GROUP 7 OBJECT J",
  "history": [
    {
      "epoch": "2026-04-16T15:45:41.632704Z",
      "apogee_km": 824.4883729674257,
      "perigee_km": 804.3405977466446,
      "latitude_deg": 8.002357811588028e-05,
      "longitude_deg": -113.5615715161396,
      "height_km": 827.4213203801926,
      "semi_major_axis_km": 7192.551485357035,
      "eccentricity": 0.0014006,
      "inclination_deg": 88.991,
      "raan_deg": 327.6632,
      "arg_perigee_deg": 189.2081,
      "mean_anomaly_deg": 170.8857,
      "mean_motion_rev_day": 14.23240498
    }
  ]
}